     3.03           N: GNSS NAV DATA    M: Mixed            RINEX VERSION / TYPE
CONVBIN demo5 b34g                      20231119 143632 UTC PGM / RUN BY / DATE 
log: 20230910-MSM7.rtcm                                     COMMENT             
format: RTCM 3                                              COMMENT             
format: RTCM 3                                              COMMENT             
log: 20230910-MSM7.rtcm                                     COMMENT             
                                                            END OF HEADER       
G04 2023 09 10 12 00 00  .151809304953D-03  .112549969344D-10  .000000000000D+00
      .670000000000D+02 -.676875000000D+02  .416195907659D-08 -.190315059802D+01
     -.354275107384D-05  .253424153198D-02  .103078782558D-04  .515363169289D+04
      .432000000000D+05 -.726431608200D-07  .250344675211D+01  .372529029846D-08
      .963615114072D+00  .181031250000D+03 -.304226572546D+01 -.772675042160D-08
      .675028117631D-10  .100000000000D+01  .227900000000D+04  .000000000000D+00
      .200000000000D+01  .000000000000D+00 -.419095158577D-08  .323000000000D+03
      .414020000000D+05  .400000000000D+01
E21 2023 09 10 10 20 00 -.551778764930D-03 -.223110419029D-11  .000000000000D+00
      .620000000000D+02 -.134375000000D+01  .323870633369D-08  .266246277572D+01
     -.247731804848D-06  .163053744473D-03  .539608299732D-05  .544060832787D+04
      .372000000000D+05 -.409781932831D-07 -.173420246223D+01 -.242143869400D-07
      .967866506153D+00  .227875000000D+03 -.162385388296D+01 -.558201822775D-08
     -.264653881039D-09  .258000000000D+03  .227900000000D+04  .000000000000D+00
      .312000000000D+01  .000000000000D+00  .232830643654D-08  .000000000000D+00
      .414020000000D+05  .000000000000D+00
E09 2023 09 10 11 10 00 -.151376239955D-03 -.134861011247D-10  .000000000000D+00
      .670000000000D+02 -.110843750000D+03  .278547316900D-08  .846181670817D+00
     -.508315861225D-05  .279665924609D-03  .109001994133D-04  .544062346840D+04
      .402000000000D+05 -.949949026108D-07  .244956188506D+01 -.279396772385D-07
      .965507947201D+00  .109375000000D+03  .321760997608D+00 -.527307678767D-08
     -.500020827875D-11  .517000000000D+03  .227900000000D+04  .000000000000D+00
      .312000000000D+01  .000000000000D+00  .325962901115D-08  .325962901115D-08
      .414020000000D+05  .000000000000D+00
